0 swarma 2021-01-08 0.6349918052522467 2021-01-01 2021-01-08
1 99999U          21008.00000000 +.00000000 +00000-0 +33446-2 4    00
2 99999 087.3606 056.2274 0013411 086.5817 111.0542 15.46204841    00
0 swarma 2021-01-09 0.6917011595721079 2021-01-02 2021-01-09
1 99999U          21009.00000000 +.00000000 +00000-0 +34111-2 4    00
2 99999 087.3604 055.8623 0013336 086.7653 269.3635 15.46207490    00
0 swarma 2021-01-10 0.6801429254056706 2021-01-03 2021-01-10
1 99999U          21010.00000000 +.00000000 +00000-0 +36260-2 4    00
2 99999 087.3605 055.4986 0013257 086.4863 068.1450 15.46210519    00
0 swarma 2021-01-11 0.6843345367791439 2021-01-04 2021-01-11
1 99999U          21011.00000000 +.00000000 +00000-0 +33193-2 4    00
2 99999 087.3602 055.1342 0013307 087.1495 225.9929 15.46212356    00
0 swarma 2021-01-12 0.7099766947184277 2021-01-05 2021-01-12
1 99999U          21012.00000000 +.00000000 +00000-0 +29827-2 4    00
2 99999 087.3597 054.7692 0013279 087.2478 024.4094 15.46213797    00
0 swarma 2021-01-13 0.704964915767558 2021-01-06 2021-01-13
1 99999U          21013.00000000 +.00000000 +00000-0 +29186-2 4    00
2 99999 087.3593 054.4046 0013297 087.5196 182.6693 15.46216373    00
0 swarma 2021-01-14 0.6933952478263102 2021-01-07 2021-01-14
1 99999U          21014.00000000 +.00000000 +26827-6 +31004-2 4    00
2 99999 087.3589 054.0394 0013223 087.6788 341.0512 15.46219336    00
0 swarma 2021-01-15 0.6859114137836921 2021-01-08 2021-01-15
1 99999U          21015.00000000 +.00000000 +00000-0 +33193-2 4    00
2 99999 087.3588 053.6749 0013250 087.8929 139.3834 15.46222219    00
0 swarma 2021-01-16 0.6827987376709403 2021-01-09 2021-01-16
1 99999U          21016.00000000 +.00000000 +00000-0 +33193-2 4    00
2 99999 087.3585 053.3099 0013236 088.0844 297.7483 15.46224714    00
0 swarma 2021-01-17 0.6779393624606741 2021-01-10 2021-01-17
1 99999U          21017.00000000 +.00000000 +00000-0 +29662-2 4    00
2 99999 087.3586 052.9450 0013212 088.2578 096.1324 15.46225955    00
0 swarma 2021-01-18 0.7461858076918517 2021-01-11 2021-01-18
1 99999U          21018.00000000 +.00000000 +19307-5 +27696-2 4    00
2 99999 087.3585 052.5802 0013235 088.4400 254.5191 15.46227867    00
0 swarma 2021-01-19 0.6827987653081347 2021-01-12 2021-01-19
1 99999U          21019.00000000 +.00000000 +10000-4 +24364-2 4    00
2 99999 087.3588 052.2159 0013217 088.6791 052.8531 15.46229181    00
0 swarma 2021-01-20 0.7579645353281663 2021-01-13 2021-01-20
1 99999U          21020.00000000 +.00000000 +00000-0 +24623-2 4    00
2 99999 087.3591 051.8510 0013217 088.8712 211.2419 15.46231265    00
0 swarma 2021-01-21 0.6941049108847122 2021-01-14 2021-01-21
1 99999U          21021.00000000 +.00000000 +00000-0 +25793-2 4    00
2 99999 087.3589 051.4864 0013263 089.0501 009.6564 15.46233795    00
0 swarma 2021-01-22 0.7115153587000065 2021-01-15 2021-01-22
1 99999U          21022.00000000 +.00000000 +00000-0 +28316-2 4    00
2 99999 087.3591 051.1219 0013218 089.3405 167.9658 15.46236558    00
0 swarma 2021-01-23 0.7364820057715137 2021-01-16 2021-01-23
1 99999U          21023.00000000 +.00000000 +00000-0 +31004-2 4    00
2 99999 087.3590 050.7572 0013271 089.4192 326.4966 15.46239588    00
0 swarma 2021-01-24 0.6496771703136336 2021-01-17 2021-01-24
1 99999U          21024.00000000 +.00000000 +50042-3 +31004-2 4    00
2 99999 087.3590 050.3928 0013292 089.6932 124.8410 15.46242010    00
0 swarma 2021-01-25 0.7612510458433749 2021-01-18 2021-01-25
1 99999U          21025.00000000 +.00000000 +00000-0 +31225-2 4    00
2 99999 087.3588 050.0283 0013278 089.8016 283.3589 15.46244489    00
0 swarma 2021-01-26 0.6757771046856669 2021-01-19 2021-01-26
1 99999U          21026.00000000 +.00000000 +00000-0 +31776-2 4    00
2 99999 087.3582 049.6632 0013368 089.9832 081.8168 15.46247360    00
0 swarma 2021-01-27 0.7316939010773131 2021-01-20 2021-01-27
1 99999U          21027.00000000 +.00000000 +00000-0 +34610-2 4    00
2 99999 087.3579 049.2983 0013321 090.2080 240.2476 15.46251073    00
0 swarma 2021-01-28 0.732145551976813 2021-01-21 2021-01-28
1 99999U          21028.00000000 +.00000000 +80075-2 +39989-2 4    00
2 99999 087.3578 048.9336 0013391 090.2991 038.8272 15.46255675    00
0 swarma 2021-01-29 0.6618192700523725 2021-01-22 2021-01-29
1 99999U          21029.00000000 +.00000000 +67295-6 +44717-2 4    00
2 99999 087.3575 048.5683 0013432 090.5385 197.2728 15.46260414    00
0 swarma 2021-01-30 0.7162827773063076 2021-01-23 2021-01-30
1 99999U          21030.00000000 +.00000000 +00000-0 +46454-2 4    00
2 99999 087.3576 048.2033 0013439 090.6216 355.8811 15.46264166    00
0 swarma 2021-01-31 0.6620077750940718 2021-01-24 2021-01-31
1 99999U          21031.00000000 +.00000000 +00000-0 +43602-2 4    00
2 99999 087.3577 047.8382 0013517 090.8323 154.3712 15.46266834    00
0 swarma 2021-02-01 0.6893052424829658 2021-01-25 2021-02-01
1 99999U          21032.00000000 +.00000000 +00000-0 +38006-2 4    00
2 99999 087.3579 047.4736 0013534 090.8168 313.0960 15.46268612    00
0 swarma 2021-02-02 0.7132446198787109 2021-01-26 2021-02-02
1 99999U          21033.00000000 +.00000000 +00000-0 +32939-2 4    00
2 99999 087.3582 047.1089 0013577 091.0381 111.5908 15.46270303    00
0 swarma 2021-02-03 0.6906308022599926 2021-01-27 2021-02-03
1 99999U          21034.00000000 +.00000000 +00000-0 +28499-2 4    00
2 99999 087.3579 046.7447 0013648 090.0485 271.3016 15.46271786    00
0 swarma 2021-02-04 0.6996566127661885 2021-01-28 2021-02-04
1 99999U          21035.00000000 +.00000000 +00000-0 +29153-2 4    00
2 99999 087.3588 046.3800 0013691 090.9741 069.1163 15.46274795    00
0 swarma 2021-02-05 0.745714110172369 2021-01-29 2021-02-05
1 99999U          21036.00000000 +.00000000 +20000-3 +31586-2 4    00
2 99999 087.3586 046.0153 0013806 090.9593 227.8843 15.46278431    00
0 swarma 2021-02-06 0.6390186243207692 2021-01-30 2021-02-06
1 99999U          21037.00000000 +.00000000 +10000-4 +39989-2 4    00
2 99999 087.3586 045.6510 0013833 091.0027 026.6031 15.46283772    00
0 swarma 2021-02-07 0.6788477656355474 2021-01-31 2021-02-07
1 99999U          21038.00000000 +.00000000 +00000-0 +37342-2 4    00
2 99999 087.3584 045.2861 0013893 091.4750 184.8993 15.46285840    00
0 swarma 2021-02-08 0.6822906097748624 2021-02-01 2021-02-08
1 99999U          21039.00000000 +.00000000 +00000-0 +33525-2 4    00
2 99999 087.3582 044.9213 0013916 091.1859 343.9648 15.46287595    00
0 swarma 2021-02-09 0.6551403911530567 2021-02-02 2021-02-09
1 99999U          21040.00000000 +.00000000 +00000-0 +36010-2 4    00
2 99999 087.3579 044.5564 0014120 092.3269 141.6159 15.46290857    00
0 swarma 2021-02-10 0.7191260396326511 2021-02-03 2021-02-10
1 99999U          21041.00000000 +.00000000 +00000-0 +30674-2 4    00
2 99999 087.3579 044.1910 0013968 091.1669 301.5734 15.46292782    00
0 swarma 2021-02-11 0.6362988191447564 2021-02-04 2021-02-11
1 99999U          21042.00000000 +.00000000 +00000-0 +29993-2 4    00
2 99999 087.3579 043.8262 0014054 091.2600 100.2889 15.46295401    00
0 swarma 2021-02-12 0.6943449800947116 2021-02-05 2021-02-12
1 99999U          21043.00000000 +.00000000 +74300-7 +28864-2 4    00
2 99999 087.3581 043.4613 0014023 091.1071 259.2548 15.46297541    00
0 swarma 2021-02-13 0.6730048775937086 2021-02-06 2021-02-13
1 99999U          21044.00000000 +.00000000 +00000-0 +27207-2 4    00
2 99999 087.3581 043.0962 0014156 091.0910 058.0921 15.46299542    00
0 swarma 2021-02-14 0.6436960652871523 2021-02-07 2021-02-14
1 99999U          21045.00000000 +.00000000 +50000-2 +24278-2 4    00
2 99999 087.3586 042.7317 0014146 090.9692 217.0433 15.46301141    00
0 swarma 2021-02-15 0.7350113567869992 2021-02-08 2021-02-15
1 99999U          21046.00000000 +.00000000 +10000-3 +25080-2 4    00
2 99999 087.3588 042.3669 0014214 090.9416 015.9125 15.46303896    00
0 swarma 2021-02-16 0.6422805994713813 2021-02-09 2021-02-16
1 99999U          21047.00000000 +.00000000 +00000-0 +25496-2 4    00
2 99999 087.3593 042.0024 0014272 090.8725 174.8317 15.46306617    00
0 swarma 2021-02-17 0.7084158226101431 2021-02-10 2021-02-17
1 99999U          21048.00000000 +.00000000 +10000-4 +27207-2 4    00
2 99999 087.3594 041.6377 0014287 090.7240 333.8358 15.46309457    00
0 swarma 2021-02-18 0.6722916965370296 2021-02-11 2021-02-18
1 99999U          21049.00000000 +.00000000 +20000-3 +29084-2 4    00
2 99999 087.3596 041.2734 0014351 090.6874 132.7453 15.46312841    00
0 swarma 2021-02-19 0.6582840403047525 2021-02-12 2021-02-19
1 99999U          21050.00000000 +.00000000 +00000-0 +29119-2 4    00
2 99999 087.3597 040.9090 0014424 090.3341 291.9798 15.46315716    00
0 swarma 2021-02-20 0.7336156150897502 2021-02-13 2021-02-20
1 99999U          21051.00000000 +.00000000 +00000-0 +30940-2 4    00
2 99999 087.3598 040.5447 0014409 090.4811 090.7238 15.46319148    00
0 swarma 2021-02-21 0.6884957334402328 2021-02-14 2021-02-21
1 99999U          21052.00000000 +.00000000 +13460-0 +31776-2 4    00
2 99999 087.3595 040.1802 0014569 089.7490 250.3624 15.46322706    00
0 swarma 2021-02-22 0.7508926623730897 2021-02-15 2021-02-22
1 99999U          21053.00000000 +.00000000 +13459-0 +34744-2 4    00
2 99999 087.3594 039.8156 0014589 089.7357 049.3022 15.46327174    00
0 swarma 2021-02-23 0.7007240843736562 2021-02-16 2021-02-23
1 99999U          21054.00000000 +.00000000 +00000-0 +39702-2 4    00
2 99999 087.3596 039.4508 0014501 089.9150 208.0663 15.46332707    00
0 swarma 2021-02-23 0.7015019604117353 2021-02-16 2021-02-23
1 99999U          21054.00000000 +.00000000 +00000-0 +39989-2 4    00
2 99999 087.3596 039.4508 0014495 089.9162 208.0652 15.46332801    00
0 swarma 2021-02-24 0.7085246732490117 2021-02-17 2021-02-24
1 99999U          21055.00000000 +.00000000 +25595-4 +43272-2 4    00
2 99999 087.3596 039.0861 0014607 089.7383 007.2033 15.46338147    00
